{"fetched_at":"2026-07-14T17:40:48.257Z","source":"https://celestrak.org/NORAD/elements/gp.php?NAME=HULIANWANG&FORMAT=JSON","constellation":"guowang","records":[{"OBJECT_NAME":"HULIANWANG DIGUI-156","OBJECT_ID":"2026-047B","EPOCH":"2026-07-13T14:36:39.468096","CLASSIFICATION_TYPE":"U","MEAN_MOTION":13.2932614,"ECCENTRICITY":0.0000838,"INCLINATION":50.0052,"RA_OF_ASC_NODE":321.5514,"ARG_OF_PERICENTER":196.3464,"MEAN_ANOMALY":163.7381,"EPHEMERIS_TYPE":0,"NORAD_CAT_ID":68130,"ELEMENT_SET_NO":999,"REV_AT_EPOCH":1657,"BSTAR":0.000048821,"MEAN_MOTION_DOT":-0.00000101,"MEAN_MOTION_DDOT":0},{"OBJECT_NAME":"HULIANWANG DIGUI-157","OBJECT_ID":"2026-047C","EPOCH":"2026-07-13T14:24:39.122784","CLASSIFICATION_TYPE":"U","MEAN_MOTION":13.29325419,"ECCENTRICITY":0.000083,"INCLINATION":50.0022,"RA_OF_ASC_NODE":321.4791,"ARG_OF_PERICENTER":191.1263,"MEAN_ANOMALY":168.9591,"EPHEMERIS_TYPE":0,"NORAD_CAT_ID":68131,"ELEMENT_SET_NO":999,"REV_AT_EPOCH":1658,"BSTAR":0.000018024,"MEAN_MOTION_DOT":-0.00000116,"MEAN_MOTION_DDOT":0},{"OBJECT_NAME":"HULIANWANG DIGUI-158","OBJECT_ID":"2026-047D","EPOCH":"2026-07-13T14:12:34.524000","CLASSIFICATION_TYPE":"U","MEAN_MOTION":13.29324198,"ECCENTRICITY":0.0000955,"INCLINATION":50.0067,"RA_OF_ASC_NODE":321.483,"ARG_OF_PERICENTER":192.7456,"MEAN_ANOMALY":167.3392,"EPHEMERIS_TYPE":0,"NORAD_CAT_ID":68132,"ELEMENT_SET_NO":999,"REV_AT_EPOCH":1657,"BSTAR":0.000058226,"MEAN_MOTION_DOT":-9.7e-7,"MEAN_MOTION_DDOT":0},{"OBJECT_NAME":"HULIANWANG DIGUI-159","OBJECT_ID":"2026-047E","EPOCH":"2026-07-13T14:00:34.642656","CLASSIFICATION_TYPE":"U","MEAN_MOTION":13.29325927,"ECCENTRICITY":0.0001009,"INCLINATION":50.0036,"RA_OF_ASC_NODE":321.4083,"ARG_OF_PERICENTER":187.9004,"MEAN_ANOMALY":172.1852,"EPHEMERIS_TYPE":0,"NORAD_CAT_ID":68133,"ELEMENT_SET_NO":999,"REV_AT_EPOCH":1658,"BSTAR":0.000033066,"MEAN_MOTION_DOT":-0.00000109,"MEAN_MOTION_DDOT":0},{"OBJECT_NAME":"HULIANWANG DIGUI-160","OBJECT_ID":"2026-047F","EPOCH":"2026-07-13T13:36:23.971104","CLASSIFICATION_TYPE":"U","MEAN_MOTION":13.29325625,"ECCENTRICITY":0.0001081,"INCLINATION":50.0094,"RA_OF_ASC_NODE":321.3807,"ARG_OF_PERICENTER":175.8262,"MEAN_ANOMALY":184.2619,"EPHEMERIS_TYPE":0,"NORAD_CAT_ID":68134,"ELEMENT_SET_NO":999,"REV_AT_EPOCH":1657,"BSTAR":0.000042047,"MEAN_MOTION_DOT":-0.00000105,"MEAN_MOTION_DDOT":0},{"OBJECT_NAME":"HULIANWANG DIGUI-161","OBJECT_ID":"2026-047G","EPOCH":"2026-07-13T13:48:26.979264","CLASSIFICATION_TYPE":"U","MEAN_MOTION":13.29334316,"ECCENTRICITY":0.00009,"INCLINATION":50.0114,"RA_OF_ASC_NODE":321.4448,"ARG_OF_PERICENTER":190.177,"MEAN_ANOMALY":169.9084,"EPHEMERIS_TYPE":0,"NORAD_CAT_ID":68135,"ELEMENT_SET_NO":999,"REV_AT_EPOCH":1658,"BSTAR":0.000046681,"MEAN_MOTION_DOT":-0.00000102,"MEAN_MOTION_DDOT":0},{"OBJECT_NAME":"HULIANWANG DIGUI-162","OBJECT_ID":"2026-047H","EPOCH":"2026-07-13T15:12:57.575808","CLASSIFICATION_TYPE":"U","MEAN_MOTION":13.29324129,"ECCENTRICITY":0.0000905,"INCLINATION":50.0082,"RA_OF_ASC_NODE":321.0593,"ARG_OF_PERICENTER":198.2843,"MEAN_ANOMALY":161.7997,"EPHEMERIS_TYPE":0,"NORAD_CAT_ID":68136,"ELEMENT_SET_NO":999,"REV_AT_EPOCH":1658,"BSTAR":0.000068659,"MEAN_MOTION_DOT":-9.2e-7,"MEAN_MOTION_DDOT":0},{"OBJECT_NAME":"HULIANWANG DIGUI-163","OBJECT_ID":"2026-047J","EPOCH":"2026-07-13T15:00:40.620096","CLASSIFICATION_TYPE":"U","MEAN_MOTION":13.29338979,"ECCENTRICITY":0.0000766,"INCLINATION":50.0086,"RA_OF_ASC_NODE":321.018,"ARG_OF_PERICENTER":196.9058,"MEAN_ANOMALY":163.1789,"EPHEMERIS_TYPE":0,"NORAD_CAT_ID":68137,"ELEMENT_SET_NO":999,"REV_AT_EPOCH":1659,"BSTAR":0.000072962,"MEAN_MOTION_DOT":-9e-7,"MEAN_MOTION_DDOT":0},{"OBJECT_NAME":"HULIANWANG DIGUI-164","OBJECT_ID":"2026-076A","EPOCH":"2026-07-14T04:09:02.192256","CLASSIFICATION_TYPE":"U","MEAN_MOTION":13.24410837,"ECCENTRICITY":0.0002039,"INCLINATION":86.4945,"RA_OF_ASC_NODE":34.7638,"ARG_OF_PERICENTER":78.8755,"MEAN_ANOMALY":281.2608,"EPHEMERIS_TYPE":0,"NORAD_CAT_ID":68656,"ELEMENT_SET_NO":999,"REV_AT_EPOCH":1294,"BSTAR":0.000010368,"MEAN_MOTION_DOT":1.9e-7,"MEAN_MOTION_DDOT":0},{"OBJECT_NAME":"HULIANWANG DIGUI-165","OBJECT_ID":"2026-076B","EPOCH":"2026-07-14T03:58:10.731936","CLASSIFICATION_TYPE":"U","MEAN_MOTION":13.24413519,"ECCENTRICITY":0.0002152,"INCLINATION":86.4965,"RA_OF_ASC_NODE":34.7827,"ARG_OF_PERICENTER":85.3143,"MEAN_ANOMALY":274.8237,"EPHEMERIS_TYPE":0,"NORAD_CAT_ID":68657,"ELEMENT_SET_NO":999,"REV_AT_EPOCH":1294,"BSTAR":-0.000077247,"MEAN_MOTION_DOT":-1.8e-7,"MEAN_MOTION_DDOT":0},{"OBJECT_NAME":"HULIANWANG DIGUI-166","OBJECT_ID":"2026-076C","EPOCH":"2026-07-14T03:47:23.093088","CLASSIFICATION_TYPE":"U","MEAN_MOTION":13.2441154,"ECCENTRICITY":0.0002125,"INCLINATION":86.4906,"RA_OF_ASC_NODE":34.7173,"ARG_OF_PERICENTER":85.0115,"MEAN_ANOMALY":275.1261,"EPHEMERIS_TYPE":0,"NORAD_CAT_ID":68658,"ELEMENT_SET_NO":999,"REV_AT_EPOCH":1294,"BSTAR":-0.000073816,"MEAN_MOTION_DOT":-1.7e-7,"MEAN_MOTION_DDOT":0},{"OBJECT_NAME":"HULIANWANG DIGUI-167","OBJECT_ID":"2026-076D","EPOCH":"2026-07-14T03:36:24.858144","CLASSIFICATION_TYPE":"U","MEAN_MOTION":13.24413587,"ECCENTRICITY":0.0002124,"INCLINATION":86.4961,"RA_OF_ASC_NODE":34.7725,"ARG_OF_PERICENTER":84.5506,"MEAN_ANOMALY":275.587,"EPHEMERIS_TYPE":0,"NORAD_CAT_ID":68659,"ELEMENT_SET_NO":999,"REV_AT_EPOCH":1294,"BSTAR":-0.000073027,"MEAN_MOTION_DOT":-1.7e-7,"MEAN_MOTION_DDOT":0},{"OBJECT_NAME":"HULIANWANG DIGUI-168","OBJECT_ID":"2026-076E","EPOCH":"2026-07-14T03:25:32.289312","CLASSIFICATION_TYPE":"U","MEAN_MOTION":13.24411803,"ECCENTRICITY":0.0002142,"INCLINATION":86.4942,"RA_OF_ASC_NODE":34.7485,"ARG_OF_PERICENTER":85.4739,"MEAN_ANOMALY":274.6639,"EPHEMERIS_TYPE":0,"NORAD_CAT_ID":68660,"ELEMENT_SET_NO":999,"REV_AT_EPOCH":1293,"BSTAR":-0.000098953,"MEAN_MOTION_DOT":-2.8e-7,"MEAN_MOTION_DDOT":0}]}
