HULIANWANG DIGUI-156    
1 68130U 26047B   26194.60879014 -.00000101  00000+0  48821-4 0  9993
2 68130  50.0052 321.5514 0000838 196.3464 163.7381 13.29326140 16574
HULIANWANG DIGUI-157    
1 68131U 26047C   26194.60045281 -.00000116  00000+0  18024-4 0  9993
2 68131  50.0022 321.4791 0000830 191.1263 168.9591 13.29325419 16589
HULIANWANG DIGUI-158    
1 68132U 26047D   26194.59206625 -.00000097  00000+0  58226-4 0  9999
2 68132  50.0067 321.4830 0000955 192.7456 167.3392 13.29324198 16576
HULIANWANG DIGUI-159    
1 68133U 26047E   26194.58373429 -.00000109  00000+0  33066-4 0  9995
2 68133  50.0036 321.4083 0001009 187.9004 172.1852 13.29325927 16586
HULIANWANG DIGUI-160    
1 68134U 26047F   26194.56694411 -.00000105  00000+0  42047-4 0  9996
2 68134  50.0094 321.3807 0001081 175.8262 184.2619 13.29325625 16575
HULIANWANG DIGUI-161    
1 68135U 26047G   26194.57531226 -.00000102  00000+0  46681-4 0  9997
2 68135  50.0114 321.4448 0000900 190.1770 169.9084 13.29334316 16588
HULIANWANG DIGUI-162    
1 68136U 26047H   26194.63399972 -.00000092  00000+0  68659-4 0  9992
2 68136  50.0082 321.0593 0000905 198.2843 161.7997 13.29324129 16589
HULIANWANG DIGUI-163    
1 68137U 26047J   26194.62547014 -.00000090  00000+0  72962-4 0  9994
2 68137  50.0086 321.0180 0000766 196.9058 163.1789 13.29338979 16598
HULIANWANG DIGUI-164    
1 68656U 26076A   26195.17294204  .00000019  00000+0  10368-4 0  9995
2 68656  86.4945  34.7638 0002039  78.8755 281.2608 13.24410837 12940
HULIANWANG DIGUI-165    
1 68657U 26076B   26195.16540199 -.00000018  00000+0 -77247-4 0  9992
2 68657  86.4965  34.7827 0002152  85.3143 274.8237 13.24413519 12949
HULIANWANG DIGUI-166    
1 68658U 26076C   26195.15790617 -.00000017  00000+0 -73816-4 0  9991
2 68658  86.4906  34.7173 0002125  85.0115 275.1261 13.24411540 12948
HULIANWANG DIGUI-167    
1 68659U 26076D   26195.15028771 -.00000017  00000+0 -73027-4 0  9991
2 68659  86.4961  34.7725 0002124  84.5506 275.5870 13.24413587 12943
HULIANWANG DIGUI-168    
1 68660U 26076E   26195.14273483 -.00000028  00000+0 -98953-4 0  9991
2 68660  86.4942  34.7485 0002142  85.4739 274.6639 13.24411803 12936
